{
  "type": "FeatureCollection",
  "features": [
    {
      "type": "Feature",
      "properties": {
        "norad_id": 66591,
        "name": "STARLINK-36058",
        "group": "last-30-days",
        "lat": -41.48586046793014,
        "lon": 114.06190151164557,
        "alt_km": 416.7472180028017,
        "timestamp": "2025-12-13T22:39:28.444271+00:00",
        "meta_object_name": "STARLINK-36058",
        "meta_object_id": "2025-270D",
        "meta_epoch": "2025-12-13T06:00:02.000160",
        "meta_mean_motion": 15.50806972,
        "meta_eccentricity": 0.0003393,
        "meta_inclination": 42.9997,
        "meta_ra_of_asc_node": 189.7393,
        "meta_arg_of_pericenter": 269.954,
        "meta_mean_anomaly": 94.8289,
        "meta_ephemeris_type": 0,
        "meta_classification_type": "U",
        "meta_norad_cat_id": 66591,
        "meta_element_set_no": 999,
        "meta_rev_at_epoch": 448,
        "meta_bstar": -0.00583446,
        "meta_mean_motion_dot": -0.00331353,
        "meta_mean_motion_ddot": 0,
        "tle_line1": "1 66591U 25270D   25347.25002315 -.00331353  00000+0 -58345-2 0  9998",
        "tle_line2": "2 66591  42.9997 189.7393 0003393 269.9540  94.8289 15.50806972  4481"
      },
      "geometry": {
        "type": "Point",
        "coordinates": [
          114.06190151164557,
          -41.48586046793014
        ]
      }
    },
    {
      "type": "Feature",
      "properties": {
        "norad_id": 66592,
        "name": "STARLINK-36066",
        "group": "last-30-days",
        "lat": -42.87781047316356,
        "lon": 90.88776734250466,
        "alt_km": 437.3107866337932,
        "timestamp": "2025-12-13T22:39:28.444282+00:00",
        "meta_object_name": "STARLINK-36066",
        "meta_object_id": "2025-270E",
        "meta_epoch": "2025-12-13T06:00:02.000160",
        "meta_mean_motion": 15.46786343,
        "meta_eccentricity": 0.00015724,
        "meta_inclination": 42.9999,
        "meta_ra_of_asc_node": 189.7482,
        "meta_arg_of_pericenter": 262.7472,
        "meta_mean_anomaly": 98.2296,
        "meta_ephemeris_type": 0,
        "meta_classification_type": "U",
        "meta_norad_cat_id": 66592,
        "meta_element_set_no": 999,
        "meta_rev_at_epoch": 438,
        "meta_bstar": -0.045826292,
        "meta_mean_motion_dot": -0.02088457,
        "meta_mean_motion_ddot": 0,
        "tle_line1": "1 66592U 25270E   25347.25002315 -.02088457  00000+0 -45826-1 0  9994",
        "tle_line2": "2 66592  42.9999 189.7482 0001572 262.7472  98.2296 15.46786343  4384"
      },
      "geometry": {
        "type": "Point",
        "coordinates": [
          90.88776734250466,
          -42.87781047316356
        ]
      }
    },
    {
      "type": "Feature",
      "properties": {
        "norad_id": 66593,
        "name": "STARLINK-36031",
        "group": "last-30-days",
        "lat": -40.559043105125454,
        "lon": 118.96703996963016,
        "alt_km": 417.6506768980289,
        "timestamp": "2025-12-13T22:39:28.444292+00:00",
        "meta_object_name": "STARLINK-36031",
        "meta_object_id": "2025-270F",
        "meta_epoch": "2025-12-13T06:00:02.000160",
        "meta_mean_motion": 15.50665115,
        "meta_eccentricity": 0.00018265,
        "meta_inclination": 43,
        "meta_ra_of_asc_node": 189.7292,
        "meta_arg_of_pericenter": 266.8816,
        "meta_mean_anomaly": 101.8358,
        "meta_ephemeris_type": 0,
        "meta_classification_type": "U",
        "meta_norad_cat_id": 66593,
        "meta_element_set_no": 999,
        "meta_rev_at_epoch": 448,
        "meta_bstar": -0.0034094015,
        "meta_mean_motion_dot": -0.00196041,
        "meta_mean_motion_ddot": 0,
        "tle_line1": "1 66593U 25270F   25347.25002315 -.00196041  00000+0 -34094-2 0  9998",
        "tle_line2": "2 66593  43.0000 189.7292 0001826 266.8816 101.8358 15.50665115  4487"
      },
      "geometry": {
        "type": "Point",
        "coordinates": [
          118.96703996963016,
          -40.559043105125454
        ]
      }
    },
    {
      "type": "Feature",
      "properties": {
        "norad_id": 66594,
        "name": "STARLINK-36032",
        "group": "last-30-days",
        "lat": -40.04063971988677,
        "lon": 121.27365806596613,
        "alt_km": 418.13600767009393,
        "timestamp": "2025-12-13T22:39:28.444302+00:00",
        "meta_object_name": "STARLINK-36032",
        "meta_object_id": "2025-270G",
        "meta_epoch": "2025-12-13T06:00:02.000160",
        "meta_mean_motion": 15.50756043,
        "meta_eccentricity": 0.00016139,
        "meta_inclination": 43,
        "meta_ra_of_asc_node": 189.725,
        "meta_arg_of_pericenter": 272.5431,
        "meta_mean_anomaly": 98.0754,
        "meta_ephemeris_type": 0,
        "meta_classification_type": "U",
        "meta_norad_cat_id": 66594,
        "meta_element_set_no": 999,
        "meta_rev_at_epoch": 422,
        "meta_bstar": -0.0062266205,
        "meta_mean_motion_dot": -0.00351919,
        "meta_mean_motion_ddot": 0,
        "tle_line1": "1 66594U 25270G   25347.25002315 -.00351919  00000+0 -62266-2 0  9998",
        "tle_line2": "2 66594  43.0000 189.7250 0001613 272.5431  98.0754 15.50756043  4223"
      },
      "geometry": {
        "type": "Point",
        "coordinates": [
          121.27365806596613,
          -40.04063971988677
        ]
      }
    },
    {
      "type": "Feature",
      "properties": {
        "norad_id": 66595,
        "name": "STARLINK-35711",
        "group": "last-30-days",
        "lat": -39.459295470962445,
        "lon": 123.61098132704548,
        "alt_km": 418.4756205183039,
        "timestamp": "2025-12-13T22:39:28.444316+00:00",
        "meta_object_name": "STARLINK-35711",
        "meta_object_id": "2025-270H",
        "meta_epoch": "2025-12-13T06:00:02.000160",
        "meta_mean_motion": 15.50791947,
        "meta_eccentricity": 0.00013473,
        "meta_inclination": 42.9999,
        "meta_ra_of_asc_node": 189.7201,
        "meta_arg_of_pericenter": 261.9239,
        "meta_mean_anomaly": 110.5942,
        "meta_ephemeris_type": 0,
        "meta_classification_type": "U",
        "meta_norad_cat_id": 66595,
        "meta_element_set_no": 999,
        "meta_rev_at_epoch": 459,
        "meta_bstar": -0.0071802916,
        "meta_mean_motion_dot": -0.00403633,
        "meta_mean_motion_ddot": 0,
        "tle_line1": "1 66595U 25270H   25347.25002315 -.00403633  00000+0 -71803-2 0  9997",
        "tle_line2": "2 66595  42.9999 189.7201 0001347 261.9239 110.5942 15.50791947  4598"
      },
      "geometry": {
        "type": "Point",
        "coordinates": [
          123.61098132704548,
          -39.459295470962445
        ]
      }
    },
    {
      "type": "Feature",
      "properties": {
        "norad_id": 66596,
        "name": "STARLINK-35811",
        "group": "last-30-days",
        "lat": -37.959440283246195,
        "lon": 62.619919528683155,
        "alt_km": 449.50375061933846,
        "timestamp": "2025-12-13T22:39:28.444327+00:00",
        "meta_object_name": "STARLINK-35811",
        "meta_object_id": "2025-270J",
        "meta_epoch": "2025-12-13T06:00:02.000160",
        "meta_mean_motion": 15.42699092,
        "meta_eccentricity": 0.00015847,
        "meta_inclination": 42.9996,
        "meta_ra_of_asc_node": 189.7759,
        "meta_arg_of_pericenter": 269.081,
        "meta_mean_anomaly": 80.1908,
        "meta_ephemeris_type": 0,
        "meta_classification_type": "U",
        "meta_norad_cat_id": 66596,
        "meta_element_set_no": 999,
        "meta_rev_at_epoch": 459,
        "meta_bstar": -0.053732896,
        "meta_mean_motion_dot": -0.02122453,
        "meta_mean_motion_ddot": 0,
        "tle_line1": "1 66596U 25270J   25347.25002315 -.02122453  00000+0 -53733-1 0  9999",
        "tle_line2": "2 66596  42.9996 189.7759 0001584 269.0810  80.1908 15.42699092  4594"
      },
      "geometry": {
        "type": "Point",
        "coordinates": [
          62.619919528683155,
          -37.959440283246195
        ]
      }
    },
    {
      "type": "Feature",
      "properties": {
        "norad_id": 66597,
        "name": "STARLINK-35820",
        "group": "last-30-days",
        "lat": -41.124517929906865,
        "lon": 116.12608244947212,
        "alt_km": 431.413895073425,
        "timestamp": "2025-12-13T22:39:28.444337+00:00",
        "meta_object_name": "STARLINK-35820",
        "meta_object_id": "2025-270K",
        "meta_epoch": "2025-12-13T06:00:02.000160",
        "meta_mean_motion": 15.48725359,
        "meta_eccentricity": 0.00018623,
        "meta_inclination": 43,
        "meta_ra_of_asc_node": 189.7129,
        "meta_arg_of_pericenter": 272.0721,
        "meta_mean_anomaly": 102.9049,
        "meta_ephemeris_type": 0,
        "meta_classification_type": "U",
        "meta_norad_cat_id": 66597,
        "meta_element_set_no": 999,
        "meta_rev_at_epoch": 459,
        "meta_bstar": -0.043201594,
        "meta_mean_motion_dot": -0.02105991,
        "meta_mean_motion_ddot": 0,
        "tle_line1": "1 66597U 25270K   25347.25002315 -.02105991  00000+0 -43202-1 0  9998",
        "tle_line2": "2 66597  43.0000 189.7129 0001862 272.0721 102.9049 15.48725359  4599"
      },
      "geometry": {
        "type": "Point",
        "coordinates": [
          116.12608244947212,
          -41.124517929906865
        ]
      }
    }
  ]
}